ORBCOMM-X               
1 21576U 91050C   24228.93548730  .00001394  00000+0  43224-3 0  9997
2 21576  98.3857 295.1899 0004337  44.9215 315.2325 14.42654053738090
ORBCOMM FM08            
1 25112U 97084A   24228.74768918  .00005432  00000+0  16408-2 0  9991
2 25112  45.0147  31.5557 0008001 154.6496 205.4748 14.43205034397201
ORBCOMM FM10            
1 25113U 97084B   24228.62307684  .00004653  00000+0  14153-2 0  9997
2 25113  45.0162  34.0935 0005259 130.2839 229.8472 14.43088399572336
ORBCOMM FM11            
1 25114U 97084C   24228.78917679  .00005308  00000+0  16132-2 0  9993
2 25114  45.0143  33.4560 0006054 129.3105 230.8282 14.42944932397320
ORBCOMM FM09            
1 25116U 97084E   24228.76526952  .00004520  00000+0  13823-2 0  9992
2 25116  45.0159  34.0166 0005749 114.3856 245.7594 14.42865891397322
